start=new Date('2023-06-02T00:00:00.000Z').valueOf();
sats=[{"MEAN_MOTION_DOT":"0.00001836","SEMIMAJOR_AXIS":"6917.899","REV_AT_EPOCH":"4814","GP_ID":"232970123","RA_OF_ASC_NODE":"50.1662","MEAN_MOTION":"15.08833925","EPOCH":"2023-06-01T00:30:39.911328","CENTER_NAME":"EARTH","OBJECT_ID":"2022-086AL","BSTAR":"0.00013342000000","PERIAPSIS":"539.092","MEAN_ANOMALY":"278.2764","TLE_LINE2":"2 53276  53.2175  50.1662 0000972  81.8338 278.2764 15.08833925 48144","NORAD_CAT_ID":"53276","ECCENTRICITY":"0.00009720","DECAY_DATE":null,"RCS_SIZE":"LARGE","APOAPSIS":"540.436","SITE":"AFETR","INCLINATION":"53.2175","LAUNCH_DATE":"2022-07-24","REF_FRAME":"TEME","TLE_LINE1":"1 53276U 22086AL  23152.02129527  .00001836  00000-0  13342-3 0  9996","EPHEMERIS_TYPE":"0","OBJECT_TYPE":"PAYLOAD","MEAN_ELEMENT_THEORY":"SGP4","MEAN_MOTION_DDOT":"0.0000000000000","FILE":"3922517","ELEMENT_SET_NO":"999","TIME_SYSTEM":"UTC","PERIOD":"95.438","ARG_OF_PERICENTER":"81.8338","COUNTRY_CODE":"US","CLASSIFICATION_TYPE":"U","OBJECT_NAME":"STARLINK-4174"},{"EPHEMERIS_TYPE":"0","TLE_LINE1":"1 53277U 22086AM  23152.13905253  .00006623  00000-0  43374-3 0  9994","OBJECT_TYPE":"PAYLOAD","MEAN_ELEMENT_THEORY":"SGP4","REF_FRAME":"TEME","INCLINATION":"53.2175","LAUNCH_DATE":"2022-07-24","SITE":"AFETR","APOAPSIS":"540.566","CLASSIFICATION_TYPE":"U","COUNTRY_CODE":"US","OBJECT_NAME":"STARLINK-4178","PERIOD":"95.437","ARG_OF_PERICENTER":"87.8454","ELEMENT_SET_NO":"999","FILE":"3922517","TIME_SYSTEM":"UTC","MEAN_MOTION_DDOT":"0.0000000000000","OBJECT_ID":"2022-086AM","CENTER_NAME":"EARTH","RA_OF_ASC_NODE":"49.6647","MEAN_MOTION":"15.08848303","EPOCH":"2023-06-01T03:20:14.138592","GP_ID":"232969623","SEMIMAJOR_AXIS":"6917.855","REV_AT_EPOCH":"4816","MEAN_MOTION_DOT":"0.00006623","RCS_SIZE":"LARGE","DECAY_DATE":null,"NORAD_CAT_ID":"53277","ECCENTRICITY":"0.00012230","TLE_LINE2":"2 53277  53.2175  49.6647 0001223  87.8454 272.2679 15.08848303 48163","MEAN_ANOMALY":"272.2679","PERIAPSIS":"538.874","BSTAR":"0.00043374000000"},{"PERIAPSIS":"538.780","MEAN_ANOMALY":"277.0815","BSTAR":"0.00071475000000","RCS_SIZE":"LARGE","DECAY_DATE":null,"TLE_LINE2":"2 53278  53.2177  49.6162 0001246  83.0319 277.0815 15.08873906 48163","ECCENTRICITY":"0.00012460","NORAD_CAT_ID":"53278","GP_ID":"232969621","MEAN_MOTION_DOT":"0.00011116","REV_AT_EPOCH":"4816","SEMIMAJOR_AXIS":"6917.777","OBJECT_ID":"2022-086AN","MEAN_MOTION":"15.08873906","EPOCH":"2023-06-01T03:25:30.804096","RA_OF_ASC_NODE":"49.6162","CENTER_NAME":"EARTH","TIME_SYSTEM":"UTC","FILE":"3922517","ELEMENT_SET_NO":"999","ARG_OF_PERICENTER":"83.0319","PERIOD":"95.435","MEAN_MOTION_DDOT":"0.0000000000000","COUNTRY_CODE":"US","CLASSIFICATION_TYPE":"U","OBJECT_NAME":"STARLINK-4180","LAUNCH_DATE":"2022-07-24","INCLINATION":"53.2177","APOAPSIS":"540.504","SITE":"AFETR","REF_FRAME":"TEME","OBJECT_TYPE":"PAYLOAD","MEAN_ELEMENT_THEORY":"SGP4","TLE_LINE1":"1 53278U 22086AN  23152.14271764  .00011116  00000-0  71475-3 0  9995","EPHEMERIS_TYPE":"0"},{"GP_ID":"232998038","MEAN_MOTION_DOT":"-0.00000175","REV_AT_EPOCH":"4906","SEMIMAJOR_AXIS":"6917.889","OBJECT_ID":"2022-086AQ","MEAN_MOTION":"15.08837123","EPOCH":"2023-06-01T17:26:03.869088","RA_OF_ASC_NODE":"1.6696","CENTER_NAME":"EARTH","PERIAPSIS":"538.875","MEAN_ANOMALY":"263.7816","BSTAR":"0.00000708620000","RCS_SIZE":"LARGE","DECAY_DATE":null,"TLE_LINE2":"2 53280  53.2190   1.6696 0001271  96.3321 263.7816 15.08837123 49063","ECCENTRICITY":"0.00012710","NORAD_CAT_ID":"53280","LAUNCH_DATE":"2022-07-24","INCLINATION":"53.2190","APOAPSIS":"540.633","SITE":"AFETR","REF_FRAME":"TEME","OBJECT_TYPE":"PAYLOAD","MEAN_ELEMENT_THEORY":"SGP4","TLE_LINE1":"1 53280U 22086AQ  23152.72643367 -.00000175  00000-0  70862-5 0  9999","EPHEMERIS_TYPE":"0","TIME_SYSTEM":"UTC","ELEMENT_SET_NO":"999","FILE":"3922718","ARG_OF_PERICENTER":"96.3321","PERIOD":"95.438","MEAN_MOTION_DDOT":"0.0000000000000","OBJECT_NAME":"STARLINK-4169","COUNTRY_CODE":"US","CLASSIFICATION_TYPE":"U"},{"DECAY_DATE":null,"RCS_SIZE":"LARGE","NORAD_CAT_ID":"53281","ECCENTRICITY":"0.00011910","TLE_LINE2":"2 53281  53.2174  49.6976 0001191  93.1816 266.9312 15.08858669 48168","MEAN_ANOMALY":"266.9312","PERIAPSIS":"538.864","BSTAR":"0.00053901000000","OBJECT_ID":"2022-086AR","CENTER_NAME":"EARTH","RA_OF_ASC_NODE":"49.6976","MEAN_MOTION":"15.08858669","EPOCH":"2023-06-01T03:04:19.994016","GP_ID":"232969628","SEMIMAJOR_AXIS":"6917.823","REV_AT_EPOCH":"4816","MEAN_MOTION_DOT":"0.00008305","COUNTRY_CODE":"US","OBJECT_NAME":"STARLINK-4182","CLASSIFICATION_TYPE":"U","PERIOD":"95.436","ARG_OF_PERICENTER":"93.1816","FILE":"3922517","ELEMENT_SET_NO":"999","TIME_SYSTEM":"UTC","MEAN_MOTION_DDOT":"0.0000000000000","EPHEMERIS_TYPE":"0","TLE_LINE1":"1 53281U 22086AR  23152.12800919  .00008305  00000-0  53901-3 0  9997","MEAN_ELEMENT_THEORY":"SGP4","OBJECT_TYPE":"PAYLOAD","REF_FRAME":"TEME","INCLINATION":"53.2174","LAUNCH_DATE":"2022-07-24","SITE":"AFETR","APOAPSIS":"540.512"},{"OBJECT_ID":"2022-086AS","RA_OF_ASC_NODE":"49.6522","EPOCH":"2023-06-01T03:14:55.536864","MEAN_MOTION":"15.08844883","CENTER_NAME":"EARTH","GP_ID":"232963268","MEAN_MOTION_DOT":"0.00001863","SEMIMAJOR_AXIS":"6917.865","REV_AT_EPOCH":"4833","DECAY_DATE":null,"RCS_SIZE":"LARGE","TLE_LINE2":"2 53282  53.2177  49.6522 0001184  86.8695 273.2433 15.08844883 48332","NORAD_CAT_ID":"53282","ECCENTRICITY":"0.00011840","PERIAPSIS":"538.911","MEAN_ANOMALY":"273.2433","BSTAR":"0.00013511000000","REF_FRAME":"TEME","TLE_LINE1":"1 53282U 22086AS  23152.13536501  .00001863  00000-0  13511-3 0  9997","EPHEMERIS_TYPE":"0","MEAN_ELEMENT_THEORY":"SGP4","OBJECT_TYPE":"PAYLOAD","INCLINATION":"53.2177","LAUNCH_DATE":"2022-07-24","APOAPSIS":"540.550","SITE":"AFETR","COUNTRY_CODE":"US","CLASSIFICATION_TYPE":"U","OBJECT_NAME":"STARLINK-4164","FILE":"3922365","ELEMENT_SET_NO":"999","TIME_SYSTEM":"UTC","PERIOD":"95.437","ARG_OF_PERICENTER":"86.8695","MEAN_MOTION_DDOT":"0.0000000000000"},{"EPHEMERIS_TYPE":"0","TLE_LINE1":"1 53283U 22086AT  23152.12432729  .00001308  00000-0  10025-3 0  9995","OBJECT_TYPE":"PAYLOAD","MEAN_ELEMENT_THEORY":"SGP4","REF_FRAME":"TEME","INCLINATION":"53.2187","LAUNCH_DATE":"2022-07-24","SITE":"AFETR","APOAPSIS":"540.780","COUNTRY_CODE":"US","OBJECT_NAME":"STARLINK-4175","CLASSIFICATION_TYPE":"U","PERIOD":"95.437","ARG_OF_PERICENTER":"116.8393","ELEMENT_SET_NO":"999","FILE":"3922365","TIME_SYSTEM":"UTC","MEAN_MOTION_DDOT":"0.0000000000000","OBJECT_ID":"2022-086AT","CENTER_NAME":"EARTH","RA_OF_ASC_NODE":"49.6984","MEAN_MOTION":"15.08842748","EPOCH":"2023-06-01T02:59:01.877856","GP_ID":"232964014","SEMIMAJOR_AXIS":"6917.872","REV_AT_EPOCH":"4833","MEAN_MOTION_DOT":"0.00001308","RCS_SIZE":"LARGE","DECAY_DATE":null,"NORAD_CAT_ID":"53283","ECCENTRICITY":"0.00015080","TLE_LINE2":"2 53283  53.2187  49.6984 0001508 116.8393 243.2753 15.08842748 48335","MEAN_ANOMALY":"243.2753","PERIAPSIS":"538.694","BSTAR":"0.00010025000000"},{"BSTAR":"0.00055328000000","MEAN_ANOMALY":"268.7650","PERIAPSIS":"539.113","NORAD_CAT_ID":"53284","ECCENTRICITY":"0.00009710","TLE_LINE2":"2 53284  53.2173  49.6699 0000971  91.3453 268.7650 15.08827166 48336","RCS_SIZE":"LARGE","DECAY_DATE":null,"SEMIMAJOR_AXIS":"6917.920","REV_AT_EPOCH":"4833","MEAN_MOTION_DOT":"0.00008525","GP_ID":"232962267","CENTER_NAME":"EARTH","RA_OF_ASC_NODE":"49.6699","EPOCH":"2023-06-01T03:09:39.737952","MEAN_MOTION":"15.08827166","OBJECT_ID":"2022-086AU","MEAN_MOTION_DDOT":"0.0000000000000","PERIOD":"95.438","ARG_OF_PERICENTER":"91.3453","FILE":"3922365","ELEMENT_SET_NO":"999","TIME_SYSTEM":"UTC","COUNTRY_CODE":"US","CLASSIFICATION_TYPE":"U","OBJECT_NAME":"STARLINK-4172","SITE":"AFETR","APOAPSIS":"540.456","INCLINATION":"53.2173","LAUNCH_DATE":"2022-07-24","EPHEMERIS_TYPE":"0","TLE_LINE1":"1 53284U 22086AU  23152.13170993  .00008525  00000-0  55328-3 0  9992","OBJECT_TYPE":"PAYLOAD","MEAN_ELEMENT_THEORY":"SGP4","REF_FRAME":"TEME"},{"NORAD_CAT_ID":"53285","ECCENTRICITY":"0.00012740","TLE_LINE2":"2 53285  53.2178  49.7506 0001274  90.8250 269.2888 15.08842867 48329","DECAY_DATE":null,"RCS_SIZE":"LARGE","BSTAR":"0.00017292000000","MEAN_ANOMALY":"269.2888","PERIAPSIS":"538.855","CENTER_NAME":"EARTH","RA_OF_ASC_NODE":"49.7506","EPOCH":"2023-06-01T02:43:08.246496","MEAN_MOTION":"15.08842867","OBJECT_ID":"2022-086AV","SEMIMAJOR_AXIS":"6917.872","REV_AT_EPOCH":"4832","MEAN_MOTION_DOT":"0.00002465","GP_ID":"232963018","OBJECT_NAME":"STARLINK-4173","COUNTRY_CODE":"US","CLASSIFICATION_TYPE":"U","MEAN_MOTION_DDOT":"0.0000000000000","PERIOD":"95.437","ARG_OF_PERICENTER":"90.8250","ELEMENT_SET_NO":"999","FILE":"3922365","TIME_SYSTEM":"UTC","TLE_LINE1":"1 53285U 22086AV  23152.11328989  .00002465  00000-0  17292-3 0  9996","EPHEMERIS_TYPE":"0","OBJECT_TYPE":"PAYLOAD","MEAN_ELEMENT_THEORY":"SGP4","REF_FRAME":"TEME","SITE":"AFETR","APOAPSIS":"540.618","INCLINATION":"53.2178","LAUNCH_DATE":"2022-07-24"},{"OBJECT_TYPE":"PAYLOAD","MEAN_ELEMENT_THEORY":"SGP4","TLE_LINE1":"1 53286U 22086AW  23152.12160437  .00001017  00000-0  81991-4 0  9990","EPHEMERIS_TYPE":"0","REF_FRAME":"TEME","SITE":"AFETR","APOAPSIS":"540.652","LAUNCH_DATE":"2022-07-24","INCLINATION":"53.2183","OBJECT_NAME":"STARLINK-4165","COUNTRY_CODE":"US","CLASSIFICATION_TYPE":"U","MEAN_MOTION_DDOT":"0.0000000000000","ARG_OF_PERICENTER":"103.4331","PERIOD":"95.437","TIME_SYSTEM":"UTC","ELEMENT_SET_NO":"999","FILE":"3922502","CENTER_NAME":"EARTH","MEAN_MOTION":"15.08847917","EPOCH":"2023-06-01T02:55:06.617568","RA_OF_ASC_NODE":"49.7212","OBJECT_ID":"2022-086AW","REV_AT_EPOCH":"4816","SEMIMAJOR_AXIS":"6917.856","MEAN_MOTION_DOT":"0.00001017","GP_ID":"232970214","ECCENTRICITY":"0.00013460","NORAD_CAT_ID":"53286","TLE_LINE2":"2 53286  53.2183  49.7212 0001346 103.4331 256.6811 15.08847917 48160","DECAY_DATE":null,"RCS_SIZE":"LARGE","BSTAR":"0.00008199100000","MEAN_ANOMALY":"256.6811","PERIAPSIS":"538.790"}];
